{
  "type": "FeatureCollection",
  "features": [
    {
      "type": "Feature",
      "properties": {
        "norad_id": 37781,
        "name": "HAIYANG-2A",
        "group": "resource",
        "lat": 62.455958794183836,
        "lon": -22.876217172192767,
        "alt_km": 960.6759572844167,
        "timestamp": "2025-12-20T16:47:35.948255+00:00",
        "meta_object_name": "HAIYANG-2A",
        "meta_object_id": "2011-043A",
        "meta_epoch": "2025-12-20T13:00:04.375584",
        "meta_mean_motion": 13.78836762,
        "meta_eccentricity": 0.0001636,
        "meta_inclination": 99.337,
        "meta_ra_of_asc_node": 355.3561,
        "meta_arg_of_pericenter": 72.2698,
        "meta_mean_anomaly": 287.8632,
        "meta_ephemeris_type": 0,
        "meta_classification_type": "U",
        "meta_norad_cat_id": 37781,
        "meta_element_set_no": 999,
        "meta_rev_at_epoch": 72206,
        "meta_bstar": 0.00022902,
        "meta_mean_motion_dot": 1.89e-06,
        "meta_mean_motion_ddot": 0,
        "tle_line1": "1 37781U 11043A   25354.54171731  .00000189  00000+0  22902-3 0  9998",
        "tle_line2": "2 37781  99.3370 355.3561 0001636  72.2698 287.8632 13.78836762722061"
      },
      "geometry": {
        "type": "Point",
        "coordinates": [
          -22.876217172192767,
          62.455958794183836
        ]
      }
    },
    {
      "type": "Feature",
      "properties": {
        "norad_id": 37791,
        "name": "RASAT",
        "group": "resource",
        "lat": -28.97645222374989,
        "lon": -100.6638589702239,
        "alt_km": 688.4779346548094,
        "timestamp": "2025-12-20T16:47:35.948265+00:00",
        "meta_object_name": "RASAT",
        "meta_object_id": "2011-044D",
        "meta_epoch": "2025-12-20T13:08:20.503392",
        "meta_mean_motion": 14.67919843,
        "meta_eccentricity": 0.0021557,
        "meta_inclination": 98.0652,
        "meta_ra_of_asc_node": 83.6898,
        "meta_arg_of_pericenter": 41.4801,
        "meta_mean_anomaly": 83.505,
        "meta_ephemeris_type": 0,
        "meta_classification_type": "U",
        "meta_norad_cat_id": 37791,
        "meta_element_set_no": 999,
        "meta_rev_at_epoch": 76697,
        "meta_bstar": 9.6302e-05,
        "meta_mean_motion_dot": 5.04e-06,
        "meta_mean_motion_ddot": 0,
        "tle_line1": "1 37791U 11044D   25354.54745953  .00000504  00000+0  96302-4 0  9990",
        "tle_line2": "2 37791  98.0652  83.6898 0021557  41.4801  83.5050 14.67919843766977"
      },
      "geometry": {
        "type": "Point",
        "coordinates": [
          -100.6638589702239,
          -28.97645222374989
        ]
      }
    },
    {
      "type": "Feature",
      "properties": {
        "norad_id": 37841,
        "name": "SRMSAT",
        "group": "resource",
        "lat": -18.70172089128411,
        "lon": -8.97972541214582,
        "alt_km": 857.020635362529,
        "timestamp": "2025-12-20T16:47:35.948276+00:00",
        "meta_object_name": "SRMSAT",
        "meta_object_id": "2011-058D",
        "meta_epoch": "2025-12-20T12:38:09.085056",
        "meta_mean_motion": 14.11513957,
        "meta_eccentricity": 0.0011946,
        "meta_inclination": 19.9724,
        "meta_ra_of_asc_node": 60.8238,
        "meta_arg_of_pericenter": 39.0399,
        "meta_mean_anomaly": 89.0233,
        "meta_ephemeris_type": 0,
        "meta_classification_type": "U",
        "meta_norad_cat_id": 37841,
        "meta_element_set_no": 999,
        "meta_rev_at_epoch": 73254,
        "meta_bstar": 6.6766e-05,
        "meta_mean_motion_dot": 3.88e-06,
        "meta_mean_motion_ddot": 0,
        "tle_line1": "1 37841U 11058D   25354.52649404  .00000388  00000+0  66766-4 0  9994",
        "tle_line2": "2 37841  19.9724  60.8238 0011946  39.0399  89.0233 14.11513957732541"
      },
      "geometry": {
        "type": "Point",
        "coordinates": [
          -8.97972541214582,
          -18.70172089128411
        ]
      }
    },
    {
      "type": "Feature",
      "properties": {
        "norad_id": 38012,
        "name": "PLEIADES 1A",
        "group": "resource",
        "lat": 79.37150054753268,
        "lon": -62.59421295161221,
        "alt_km": 689.6705305099913,
        "timestamp": "2025-12-20T16:47:35.948286+00:00",
        "meta_object_name": "PLEIADES 1A",
        "meta_object_id": "2011-076F",
        "meta_epoch": "2025-12-20T11:59:03.440832",
        "meta_mean_motion": 14.58568789,
        "meta_eccentricity": 0.0001163,
        "meta_inclination": 98.1823,
        "meta_ra_of_asc_node": 67.1486,
        "meta_arg_of_pericenter": 74.2213,
        "meta_mean_anomaly": 51.0394,
        "meta_ephemeris_type": 0,
        "meta_classification_type": "U",
        "meta_norad_cat_id": 38012,
        "meta_element_set_no": 999,
        "meta_rev_at_epoch": 74594,
        "meta_bstar": 0.00012768,
        "meta_mean_motion_dot": 5.48e-06,
        "meta_mean_motion_ddot": 0,
        "tle_line1": "1 38012U 11076F   25354.49934538  .00000548  00000+0  12768-3 0  9996",
        "tle_line2": "2 38012  98.1823  67.1486 0001163  74.2213  51.0394 14.58568789745941"
      },
      "geometry": {
        "type": "Point",
        "coordinates": [
          -62.59421295161221,
          79.37150054753268
        ]
      }
    },
    {
      "type": "Feature",
      "properties": {
        "norad_id": 38038,
        "name": "ZIYUAN 1-02C (ZY 1-02C)",
        "group": "resource",
        "lat": 42.60338013147532,
        "lon": -111.5914054404662,
        "alt_km": 756.4994810853141,
        "timestamp": "2025-12-20T16:47:35.948296+00:00",
        "meta_object_name": "ZIYUAN 1-02C (ZY 1-02C)",
        "meta_object_id": "2011-079A",
        "meta_epoch": "2025-12-20T13:27:07.682112",
        "meta_mean_motion": 14.38020856,
        "meta_eccentricity": 0.0007445,
        "meta_inclination": 98.4331,
        "meta_ra_of_asc_node": 60.4304,
        "meta_arg_of_pericenter": 117.7858,
        "meta_mean_anomaly": 18.6348,
        "meta_ephemeris_type": 0,
        "meta_classification_type": "U",
        "meta_norad_cat_id": 38038,
        "meta_element_set_no": 999,
        "meta_rev_at_epoch": 73353,
        "meta_bstar": 0.0001971,
        "meta_mean_motion_dot": 5.53e-06,
        "meta_mean_motion_ddot": 0,
        "tle_line1": "1 38038U 11079A   25354.56050558  .00000553  00000+0  19710-3 0  9996",
        "tle_line2": "2 38038  98.4331  60.4304 0007445 117.7858  18.6348 14.38020856733534"
      },
      "geometry": {
        "type": "Point",
        "coordinates": [
          -111.5914054404662,
          42.60338013147532
        ]
      }
    },
    {
      "type": "Feature",
      "properties": {
        "norad_id": 38338,
        "name": "ARIRANG-3 (KOMPSAT-3)",
        "group": "resource",
        "lat": 80.0497307078391,
        "lon": -107.32034699819762,
        "alt_km": 682.5915620239612,
        "timestamp": "2025-12-20T16:47:35.948306+00:00",
        "meta_object_name": "ARIRANG-3 (KOMPSAT-3)",
        "meta_object_id": "2012-025B",
        "meta_epoch": "2025-12-20T11:28:45.641856",
        "meta_mean_motion": 14.61721989,
        "meta_eccentricity": 0.0004893,
        "meta_inclination": 98.3334,
        "meta_ra_of_asc_node": 309.1263,
        "meta_arg_of_pericenter": 311.7979,
        "meta_mean_anomaly": 48.2803,
        "meta_ephemeris_type": 0,
        "meta_classification_type": "U",
        "meta_norad_cat_id": 38338,
        "meta_element_set_no": 999,
        "meta_rev_at_epoch": 72523,
        "meta_bstar": 8.7551e-05,
        "meta_mean_motion_dot": 3.88e-06,
        "meta_mean_motion_ddot": 0,
        "tle_line1": "1 38338U 12025B   25354.47830604  .00000388  00000+0  87551-4 0  9994",
        "tle_line2": "2 38338  98.3334 309.1263 0004893 311.7979  48.2803 14.61721989725234"
      },
      "geometry": {
        "type": "Point",
        "coordinates": [
          -107.32034699819762,
          80.0497307078391
        ]
      }
    },
    {
      "type": "Feature",
      "properties": {
        "norad_id": 38709,
        "name": "EXACTVIEW-1 (ADS-1B)",
        "group": "resource",
        "lat": 68.60461736162189,
        "lon": -52.98652900139326,
        "alt_km": 807.6499950336865,
        "timestamp": "2025-12-20T16:47:35.948317+00:00",
        "meta_object_name": "EXACTVIEW-1 (ADS-1B)",
        "meta_object_id": "2012-039C",
        "meta_epoch": "2025-12-20T06:10:11.789760",
        "meta_mean_motion": 14.24910855,
        "meta_eccentricity": 0.0010296,
        "meta_inclination": 98.9639,
        "meta_ra_of_asc_node": 102.8049,
        "meta_arg_of_pericenter": 331.9735,
        "meta_mean_anomaly": 28.0888,
        "meta_ephemeris_type": 0,
        "meta_classification_type": "U",
        "meta_norad_cat_id": 38709,
        "meta_element_set_no": 999,
        "meta_rev_at_epoch": 69722,
        "meta_bstar": 6.54e-05,
        "meta_mean_motion_dot": 1.06e-06,
        "meta_mean_motion_ddot": 0,
        "tle_line1": "1 38709U 12039C   25354.25708090  .00000106  00000+0  65400-4 0  9997",
        "tle_line2": "2 38709  98.9639 102.8049 0010296 331.9735  28.0888 14.24910855697225"
      },
      "geometry": {
        "type": "Point",
        "coordinates": [
          -52.98652900139326,
          68.60461736162189
        ]
      }
    }
  ]
}